[{"OBJECT_NAME":"STARLINK-3655","OBJECT_ID":"2022-025AD","EPOCH":"2026-03-09T11:29:59.929440","MEAN_MOTION":15.08842065,"ECCENTRICITY":0.00015684,"INCLINATION":53.2183,"RA_OF_ASC_NODE":40.0696,"ARG_OF_PERICENTER":114.8079,"MEAN_ANOMALY":245.3077,"EPHEMERIS_TYPE":0,"CLASSIFICATION_TYPE":"U","NORAD_CAT_ID":51983,"ELEMENT_SET_NO":999,"REV_AT_EPOCH":22102,"BSTAR":3.3744514e-5,"MEAN_MOTION_DOT":2.49e-6,"MEAN_MOTION_DDOT":0},{"OBJECT_NAME":"HAMSAT (VO-52)","OBJECT_ID":"2005-017B","EPOCH":"2026-03-09T22:34:09.009120","MEAN_MOTION":15.08773202,"ECCENTRICITY":0.00200128,"INCLINATION":97.9995,"RA_OF_ASC_NODE":87.8294,"ARG_OF_PERICENTER":17.3795,"MEAN_ANOMALY":342.8113,"EPHEMERIS_TYPE":0,"CLASSIFICATION_TYPE":"U","NORAD_CAT_ID":28650,"ELEMENT_SET_NO":999,"REV_AT_EPOCH":13179,"BSTAR":0.00045282519,"MEAN_MOTION_DOT":7.08e-5,"MEAN_MOTION_DDOT":0}]
